[
    {
        "Altitude(m)": 556580.1039678961,
        "Argument of Periapsis(deg)": 0.026491964442854003,
        "Eccentricity": 0.0,
        "Inclination(deg)": 53.0,
        "Latitude(deg)": -12.02627376810993,
        "Longitude(deg)": 6.002872860180177,
        "Mean Anomaly(deg)": -165.0881285296896,
        "RAAN(deg)": 279.96057347411204,
        "Satellite Name": "Starlink Shell 1 1241",
        "Satellite Number": 1241,
        "Semi-Major Axis(m)": 6931778.249405717,
        "Time(s)": 760
    },
    {
        "Altitude(m)": 556708.2804581843,
        "Argument of Periapsis(deg)": 0.02684054292236524,
        "Eccentricity": 0.0,
        "Inclination(deg)": 53.0,
        "Latitude(deg)": -12.52295269541268,
        "Longitude(deg)": 6.355713732010653,
        "Mean Anomaly(deg)": -164.46129732613295,
        "RAAN(deg)": 279.9600547040346,
        "Satellite Name": "Starlink Shell 1 1241",
        "Satellite Number": 1241,
        "Semi-Major Axis(m)": 6931778.249405717,
        "Time(s)": 770
    },
    {
        "Altitude(m)": 556838.6448970645,
        "Argument of Periapsis(deg)": 0.027189121401876473,
        "Eccentricity": 0.0,
        "Inclination(deg)": 53.0,
        "Latitude(deg)": -13.019020300404641,
        "Longitude(deg)": 6.71005237279306,
        "Mean Anomaly(deg)": -163.83446612257623,
        "RAAN(deg)": 279.9595359339571,
        "Satellite Name": "Starlink Shell 1 1241",
        "Satellite Number": 1241,
        "Semi-Major Axis(m)": 6931778.249405717,
        "Time(s)": 780
    },
    {
        "Altitude(m)": 556971.1569985164,
        "Argument of Periapsis(deg)": 0.02753769988138771,
        "Eccentricity": 0.0,
        "Inclination(deg)": 53.0,
        "Latitude(deg)": -13.51444980555265,
        "Longitude(deg)": 7.065954952010897,
        "Mean Anomaly(deg)": -163.20763491901957,
        "RAAN(deg)": 279.9590171638796,
        "Satellite Name": "Starlink Shell 1 1241",
        "Satellite Number": 1241,
        "Semi-Major Axis(m)": 6931778.249405717,
        "Time(s)": 790
    },
    {
        "Altitude(m)": 557105.7753738088,
        "Argument of Periapsis(deg)": 0.02788627836089895,
        "Eccentricity": 0.0,
        "Inclination(deg)": 53.0,
        "Latitude(deg)": -14.009214101289713,
        "Longitude(deg)": 7.423487800018417,
        "Mean Anomaly(deg)": -162.5808037154628,
        "RAAN(deg)": 279.95849839380213,
        "Satellite Name": "Starlink Shell 1 1241",
        "Satellite Number": 1241,
        "Semi-Major Axis(m)": 6931778.249405717,
        "Time(s)": 800
    },
    {
        "Altitude(m)": 557242.4575493356,
        "Argument of Periapsis(deg)": 0.02823485684041019,
        "Eccentricity": 0.0,
        "Inclination(deg)": 53.0,
        "Latitude(deg)": -14.503285730363336,
        "Longitude(deg)": 7.782717939020579,
        "Mean Anomaly(deg)": -161.95397251190613,
        "RAAN(deg)": 279.9579796237247,
        "Satellite Name": "Starlink Shell 1 1241",
        "Satellite Number": 1241,
        "Semi-Major Axis(m)": 6931778.249405717,
        "Time(s)": 810
    },
    {
        "Altitude(m)": 557381.1599850487,
        "Argument of Periapsis(deg)": 0.028583435319921423,
        "Eccentricity": 0.0,
        "Inclination(deg)": 53.0,
        "Latitude(deg)": -14.996636871870527,
        "Longitude(deg)": 8.14371361406856,
        "Mean Anomaly(deg)": -161.32714130834938,
        "RAAN(deg)": 279.9574608536472,
        "Satellite Name": "Starlink Shell 1 1241",
        "Satellite Number": 1241,
        "Semi-Major Axis(m)": 6931778.249405717,
        "Time(s)": 820
    },
    {
        "Altitude(m)": 557521.8380933593,
        "Argument of Periapsis(deg)": 0.028932013799432665,
        "Eccentricity": 0.0,
        "Inclination(deg)": 53.0,
        "Latitude(deg)": -15.489239324966782,
        "Longitude(deg)": 8.506543311179145,
        "Mean Anomaly(deg)": -160.70031010479258,
        "RAAN(deg)": 279.9569420835697,
        "Satellite Name": "Starlink Shell 1 1241",
        "Satellite Number": 1241,
        "Semi-Major Axis(m)": 6931778.249405717,
        "Time(s)": 830
    },
    {
        "Altitude(m)": 557664.446258619,
        "Argument of Periapsis(deg)": 0.029280592278943897,
        "Eccentricity": 0.0,
        "Inclination(deg)": 53.0,
        "Latitude(deg)": -15.981064492234468,
        "Longitude(deg)": 8.871276288306108,
        "Mean Anomaly(deg)": -160.07347890123597,
        "RAAN(deg)": 279.9564233134923,
        "Satellite Name": "Starlink Shell 1 1241",
        "Satellite Number": 1241,
        "Semi-Major Axis(m)": 6931778.249405717,
        "Time(s)": 840
    },
    {
        "Altitude(m)": 557808.9378570481,
        "Argument of Periapsis(deg)": 0.029629170758455132,
        "Eccentricity": 0.0,
        "Inclination(deg)": 53.0,
        "Latitude(deg)": -16.47208336269895,
        "Longitude(deg)": 9.237983106267286,
        "Mean Anomaly(deg)": -159.4466476976792,
        "RAAN(deg)": 279.9559045434148,
        "Satellite Name": "Starlink Shell 1 1241",
        "Satellite Number": 1241,
        "Semi-Major Axis(m)": 6931778.249405717,
        "Time(s)": 850
    },
    {
        "Altitude(m)": 557955.2652771735,
        "Argument of Periapsis(deg)": 0.02997774923796637,
        "Eccentricity": 0.0,
        "Inclination(deg)": 53.0,
        "Latitude(deg)": -16.962266494483007,
        "Longitude(deg)": 9.606734478631408,
        "Mean Anomaly(deg)": -158.8198164941225,
        "RAAN(deg)": 279.9553857733373,
        "Satellite Name": "Starlink Shell 1 1241",
        "Satellite Number": 1241,
        "Semi-Major Axis(m)": 6931778.249405717,
        "Time(s)": 860
    },
    {
        "Altitude(m)": 558103.3799407784,
        "Argument of Periapsis(deg)": 0.030326327717477602,
        "Eccentricity": 0.0,
        "Inclination(deg)": 53.0,
        "Latitude(deg)": -17.45158399708246,
        "Longitude(deg)": 9.977602642964202,
        "Mean Anomaly(deg)": -158.1929852905658,
        "RAAN(deg)": 279.95486700325984,
        "Satellite Name": "Starlink Shell 1 1241",
        "Satellite Number": 1241,
        "Semi-Major Axis(m)": 6931778.249405717,
        "Time(s)": 870
    },
    {
        "Altitude(m)": 558253.2323242673,
        "Argument of Periapsis(deg)": 0.030674906196988847,
        "Eccentricity": 0.0,
        "Inclination(deg)": 53.0,
        "Latitude(deg)": -17.940005513256313,
        "Longitude(deg)": 10.350660210487298,
        "Mean Anomaly(deg)": -157.56615408700912,
        "RAAN(deg)": 279.9543482331824,
        "Satellite Name": "Starlink Shell 1 1241",
        "Satellite Number": 1241,
        "Semi-Major Axis(m)": 6931778.249405717,
        "Time(s)": 880
    },
    {
        "Altitude(m)": 558404.7719805454,
        "Argument of Periapsis(deg)": 0.031023484676500086,
        "Eccentricity": 0.0,
        "Inclination(deg)": 53.0,
        "Latitude(deg)": -18.427500200515603,
        "Longitude(deg)": 10.725980696545792,
        "Mean Anomaly(deg)": -156.93932288345235,
        "RAAN(deg)": 279.9538294631049,
        "Satellite Name": "Starlink Shell 1 1241",
        "Satellite Number": 1241,
        "Semi-Major Axis(m)": 6931778.249405717,
        "Time(s)": 890
    },
    {
        "Altitude(m)": 558557.9475612972,
        "Argument of Periapsis(deg)": 0.03137206315601132,
        "Eccentricity": 0.0,
        "Inclination(deg)": 53.0,
        "Latitude(deg)": -18.914036712199316,
        "Longitude(deg)": 11.103639050869537,
        "Mean Anomaly(deg)": -156.31249167989563,
        "RAAN(deg)": 279.95331069302745,
        "Satellite Name": "Starlink Shell 1 1241",
        "Satellite Number": 1241,
        "Semi-Major Axis(m)": 6931778.249405717,
        "Time(s)": 900
    },
    {
        "Altitude(m)": 558712.7068397612,
        "Argument of Periapsis(deg)": 0.03172064163552255,
        "Eccentricity": 0.0,
        "Inclination(deg)": 53.0,
        "Latitude(deg)": -19.399583178131454,
        "Longitude(deg)": 11.483710674715578,
        "Mean Anomaly(deg)": -155.6856604763389,
        "RAAN(deg)": 279.9527919229499,
        "Satellite Name": "Starlink Shell 1 1241",
        "Satellite Number": 1241,
        "Semi-Major Axis(m)": 6931778.249405717,
        "Time(s)": 910
    },
    {
        "Altitude(m)": 558868.9967338644,
        "Argument of Periapsis(deg)": 0.0320692201150338,
        "Eccentricity": 0.0,
        "Inclination(deg)": 53.0,
        "Latitude(deg)": -19.884107184840264,
        "Longitude(deg)": 11.866271950589523,
        "Mean Anomaly(deg)": -155.05882927278225,
        "RAAN(deg)": 279.95227315287246,
        "Satellite Name": "Starlink Shell 1 1241",
        "Satellite Number": 1241,
        "Semi-Major Axis(m)": 6931778.249405717,
        "Time(s)": 920
    },
    {
        "Altitude(m)": 559026.7633298094,
        "Argument of Periapsis(deg)": 0.032417798594545036,
        "Eccentricity": 0.0,
        "Inclination(deg)": 53.0,
        "Latitude(deg)": -20.367575755333004,
        "Longitude(deg)": 12.251400771619217,
        "Mean Anomaly(deg)": -154.43199806922556,
        "RAAN(deg)": 279.95175438279506,
        "Satellite Name": "Starlink Shell 1 1241",
        "Satellite Number": 1241,
        "Semi-Major Axis(m)": 6931778.249405717,
        "Time(s)": 930
    },
    {
        "Altitude(m)": 559185.9519060609,
        "Argument of Periapsis(deg)": 0.03276637707405627,
        "Eccentricity": 0.0,
        "Inclination(deg)": 53.0,
        "Latitude(deg)": -20.849955328418485,
        "Longitude(deg)": 12.63917555765084,
        "Mean Anomaly(deg)": -153.80516686566875,
        "RAAN(deg)": 279.95123561271754,
        "Satellite Name": "Starlink Shell 1 1241",
        "Satellite Number": 1241,
        "Semi-Major Axis(m)": 6931778.249405717,
        "Time(s)": 940
    }
]